{
  "norad_id": 27445,
  "name": "GALAXY 3C (G-3C)",
  "history": [
    {
      "epoch": "2026-03-28T08:02:38.698368",
      "apogee_km": 35791.88195841516,
      "perigee_km": 35781.77164339498,
      "latitude_deg": 2.5507828605173675,
      "longitude_deg": -163.32366847991943,
      "semi_major_axis_km": 42164.963800905076,
      "eccentricity": 0.00011989,
      "inclination_deg": 3.5233,
      "raan_deg": 79.0943,
      "arg_perigee_deg": 26.0425,
      "mean_anomaly_deg": 106.4195,
      "mean_motion_rev_day": 1.00270958
    }
  ]
}